OOV-CUBE (TUBSAT-30)    
1 60240U 24128F   25151.39842074  .00002884  00000+0  23983-3 0  9999
2 60240  61.9953 114.2545 0051153  52.2637 308.3072 15.00193292 48781
COLIBRI-S (RS67S)       
1 61746U 24199M   25151.85495084  .00012002  00000+0  38572-3 0  9998
2 61746  97.3576  20.5679 0011391 206.3695 153.6968 15.32356398 78758
HORS 3 (RS81S)          
1 61753U 24199U   25151.85432260  .00014885  00000+0  45904-3 0  9991
2 61753  97.3543  20.6414 0009530 212.0429 148.0235 15.33642052 78761
HORS 4 (RS82S)          
1 61754U 24199V   25151.86143892  .00015810  00000+0  47609-3 0  9996
2 61754  97.3540  20.7760 0009697 212.0250 148.0405 15.34383627 78771
HORIZON (RS59S)         
1 61757U 24199Y   25151.86755127  .00021969  00000+0  59815-3 0  9993
2 61757  97.3564  21.2929 0010339 198.8384 161.2479 15.37466944 78806
SIT-2086                
1 61764U 24199AF  25151.88372743  .00010668  00000+0  30924-3 0  9996
2 61764  97.3545  21.0592 0008077 206.5302 153.5529 15.35696243 75633
MORDOVIA-IOT (RS50S)    
1 61765U 24199AG  25151.87785173  .00027262  00000+0  65661-3 0  9995
2 61765  97.3543  21.8674 0009785 192.2384 167.8626 15.41186744 75698
RUZAEVKA 390 (RS44S)    
1 61766U 24199AH  25151.88408457  .00026006  00000+0  65330-3 0  9992
2 61766  97.3544  21.7035 0009823 192.8220 167.2778 15.39915408 75683
HYPERVIEW 1G (RS66S)    
1 61772U 24199AP  25151.87741821  .00018366  00000+0  53922-3 0  9997
2 61772  97.3542  20.7550 0012634 216.9315 143.1060 15.35119340 75624
ALTAIR (RS65S)          
1 61779U 24199AW  25151.90011436  .00007545  00000+0  27144-3 0  9994
2 61779  97.3567  19.8566 0014299 223.2397 136.7721 15.28797079 78712
ASRTU-1 (AO-123)        
1 61781U 24199AY  25151.87195027  .00006194  00000+0  22715-3 0  9990
2 61781  97.3555  19.7278 0014553 223.9840 136.0242 15.28241042 75558
TUSUR GO (RS78S)        
1 61782U 24199AZ  25151.86151861  .00022618  00000+0  64047-3 0  9991
2 61782  97.3536  20.7738 0012974 215.9106 144.1267 15.36206737 75628
SAMSAT-IONOSPHERE (RS7*)
1 61784U 24199BB  25151.89284615  .00015328  00000+0  47938-3 0  9990
2 61784  97.3548  20.4456 0013665 219.2091 140.8162 15.33142632 78759
RTU MIREA 1 (RS51S)     
1 61785U 24199BC  25151.86733183  .00015792  00000+0  48720-3 0  9992
2 61785  97.3546  20.4774 0013490 218.1551 141.8737 15.33571148 75604
