[
  {
    "OBJECT_NAME": "OOV-CUBE (TUBSAT-30)",
    "OBJECT_ID": "2024-128F",
    "EPOCH": "2025-05-31T09:33:43.551936",
    "MEAN_MOTION": 15.00193292,
    "ECCENTRICITY": 0.0051153,
    "INCLINATION": 61.9953,
    "RA_OF_ASC_NODE": 114.2545,
    "ARG_OF_PERICENTER": 52.2637,
    "MEAN_ANOMALY": 308.3072,
    "EPHEMERIS_TYPE": 0,
    "CLASSIFICATION_TYPE": "U",
    "NORAD_CAT_ID": 60240,
    "ELEMENT_SET_NO": 999,
    "REV_AT_EPOCH": 4878,
    "BSTAR": 0.00023983,
    "MEAN_MOTION_DOT": 2.884e-05,
    "MEAN_MOTION_DDOT": 0
  },
  {
    "OBJECT_NAME": "COLIBRI-S (RS67S)",
    "OBJECT_ID": "2024-199M",
    "EPOCH": "2025-05-31T20:31:07.752576",
    "MEAN_MOTION": 15.32356398,
    "ECCENTRICITY": 0.0011391,
    "INCLINATION": 97.3576,
    "RA_OF_ASC_NODE": 20.5679,
    "ARG_OF_PERICENTER": 206.3695,
    "MEAN_ANOMALY": 153.6968,
    "EPHEMERIS_TYPE": 0,
    "CLASSIFICATION_TYPE": "U",
    "NORAD_CAT_ID": 61746,
    "ELEMENT_SET_NO": 999,
    "REV_AT_EPOCH": 7875,
    "BSTAR": 0.00038572,
    "MEAN_MOTION_DOT": 0.00012002,
    "MEAN_MOTION_DDOT": 0
  },
  {
    "OBJECT_NAME": "HORS 3 (RS81S)",
    "OBJECT_ID": "2024-199U",
    "EPOCH": "2025-05-31T20:30:13.472640",
    "MEAN_MOTION": 15.33642052,
    "ECCENTRICITY": 0.000953,
    "INCLINATION": 97.3543,
    "RA_OF_ASC_NODE": 20.6414,
    "ARG_OF_PERICENTER": 212.0429,
    "MEAN_ANOMALY": 148.0235,
    "EPHEMERIS_TYPE": 0,
    "CLASSIFICATION_TYPE": "U",
    "NORAD_CAT_ID": 61753,
    "ELEMENT_SET_NO": 999,
    "REV_AT_EPOCH": 7876,
    "BSTAR": 0.00045904,
    "MEAN_MOTION_DOT": 0.00014885,
    "MEAN_MOTION_DDOT": 0
  },
  {
    "OBJECT_NAME": "HORS 4 (RS82S)",
    "OBJECT_ID": "2024-199V",
    "EPOCH": "2025-05-31T20:40:28.322688",
    "MEAN_MOTION": 15.34383627,
    "ECCENTRICITY": 0.0009697,
    "INCLINATION": 97.354,
    "RA_OF_ASC_NODE": 20.776,
    "ARG_OF_PERICENTER": 212.025,
    "MEAN_ANOMALY": 148.0405,
    "EPHEMERIS_TYPE": 0,
    "CLASSIFICATION_TYPE": "U",
    "NORAD_CAT_ID": 61754,
    "ELEMENT_SET_NO": 999,
    "REV_AT_EPOCH": 7877,
    "BSTAR": 0.00047609,
    "MEAN_MOTION_DOT": 0.0001581,
    "MEAN_MOTION_DDOT": 0
  },
  {
    "OBJECT_NAME": "HORIZON (RS59S)",
    "OBJECT_ID": "2024-199Y",
    "EPOCH": "2025-05-31T20:49:16.429728",
    "MEAN_MOTION": 15.37466944,
    "ECCENTRICITY": 0.0010339,
    "INCLINATION": 97.3564,
    "RA_OF_ASC_NODE": 21.2929,
    "ARG_OF_PERICENTER": 198.8384,
    "MEAN_ANOMALY": 161.2479,
    "EPHEMERIS_TYPE": 0,
    "CLASSIFICATION_TYPE": "U",
    "NORAD_CAT_ID": 61757,
    "ELEMENT_SET_NO": 999,
    "REV_AT_EPOCH": 7880,
    "BSTAR": 0.00059815,
    "MEAN_MOTION_DOT": 0.00021969,
    "MEAN_MOTION_DDOT": 0
  },
  {
    "OBJECT_NAME": "SIT-2086",
    "OBJECT_ID": "2024-199AF",
    "EPOCH": "2025-05-31T21:12:34.049952",
    "MEAN_MOTION": 15.35696243,
    "ECCENTRICITY": 0.0008077,
    "INCLINATION": 97.3545,
    "RA_OF_ASC_NODE": 21.0592,
    "ARG_OF_PERICENTER": 206.5302,
    "MEAN_ANOMALY": 153.5529,
    "EPHEMERIS_TYPE": 0,
    "CLASSIFICATION_TYPE": "U",
    "NORAD_CAT_ID": 61764,
    "ELEMENT_SET_NO": 999,
    "REV_AT_EPOCH": 7563,
    "BSTAR": 0.00030924,
    "MEAN_MOTION_DOT": 0.00010668,
    "MEAN_MOTION_DDOT": 0
  },
  {
    "OBJECT_NAME": "MORDOVIA-IOT (RS50S)",
    "OBJECT_ID": "2024-199AG",
    "EPOCH": "2025-05-31T21:04:06.389472",
    "MEAN_MOTION": 15.41186744,
    "ECCENTRICITY": 0.0009785,
    "INCLINATION": 97.3543,
    "RA_OF_ASC_NODE": 21.8674,
    "ARG_OF_PERICENTER": 192.2384,
    "MEAN_ANOMALY": 167.8626,
    "EPHEMERIS_TYPE": 0,
    "CLASSIFICATION_TYPE": "U",
    "NORAD_CAT_ID": 61765,
    "ELEMENT_SET_NO": 999,
    "REV_AT_EPOCH": 7569,
    "BSTAR": 0.00065661,
    "MEAN_MOTION_DOT": 0.00027262,
    "MEAN_MOTION_DDOT": 0
  },
  {
    "OBJECT_NAME": "RUZAEVKA 390 (RS44S)",
    "OBJECT_ID": "2024-199AH",
    "EPOCH": "2025-05-31T21:13:04.906848",
    "MEAN_MOTION": 15.39915408,
    "ECCENTRICITY": 0.0009823,
    "INCLINATION": 97.3544,
    "RA_OF_ASC_NODE": 21.7035,
    "ARG_OF_PERICENTER": 192.822,
    "MEAN_ANOMALY": 167.2778,
    "EPHEMERIS_TYPE": 0,
    "CLASSIFICATION_TYPE": "U",
    "NORAD_CAT_ID": 61766,
    "ELEMENT_SET_NO": 999,
    "REV_AT_EPOCH": 7568,
    "BSTAR": 0.0006533,
    "MEAN_MOTION_DOT": 0.00026006,
    "MEAN_MOTION_DDOT": 0
  },
  {
    "OBJECT_NAME": "HYPERVIEW 1G (RS66S)",
    "OBJECT_ID": "2024-199AP",
    "EPOCH": "2025-05-31T21:03:28.933344",
    "MEAN_MOTION": 15.3511934,
    "ECCENTRICITY": 0.0012634,
    "INCLINATION": 97.3542,
    "RA_OF_ASC_NODE": 20.755,
    "ARG_OF_PERICENTER": 216.9315,
    "MEAN_ANOMALY": 143.106,
    "EPHEMERIS_TYPE": 0,
    "CLASSIFICATION_TYPE": "U",
    "NORAD_CAT_ID": 61772,
    "ELEMENT_SET_NO": 999,
    "REV_AT_EPOCH": 7562,
    "BSTAR": 0.00053922,
    "MEAN_MOTION_DOT": 0.00018366,
    "MEAN_MOTION_DDOT": 0
  },
  {
    "OBJECT_NAME": "ALTAIR (RS65S)",
    "OBJECT_ID": "2024-199AW",
    "EPOCH": "2025-05-31T21:36:09.880704",
    "MEAN_MOTION": 15.28797079,
    "ECCENTRICITY": 0.0014299,
    "INCLINATION": 97.3567,
    "RA_OF_ASC_NODE": 19.8566,
    "ARG_OF_PERICENTER": 223.2397,
    "MEAN_ANOMALY": 136.7721,
    "EPHEMERIS_TYPE": 0,
    "CLASSIFICATION_TYPE": "U",
    "NORAD_CAT_ID": 61779,
    "ELEMENT_SET_NO": 999,
    "REV_AT_EPOCH": 7871,
    "BSTAR": 0.00027144,
    "MEAN_MOTION_DOT": 7.545e-05,
    "MEAN_MOTION_DDOT": 0
  },
  {
    "OBJECT_NAME": "ASRTU-1 (AO-123)",
    "OBJECT_ID": "2024-199AY",
    "EPOCH": "2025-05-31T20:55:36.503328",
    "MEAN_MOTION": 15.28241042,
    "ECCENTRICITY": 0.0014553,
    "INCLINATION": 97.3555,
    "RA_OF_ASC_NODE": 19.7278,
    "ARG_OF_PERICENTER": 223.984,
    "MEAN_ANOMALY": 136.0242,
    "EPHEMERIS_TYPE": 0,
    "CLASSIFICATION_TYPE": "U",
    "NORAD_CAT_ID": 61781,
    "ELEMENT_SET_NO": 999,
    "REV_AT_EPOCH": 7555,
    "BSTAR": 0.00022715,
    "MEAN_MOTION_DOT": 6.194e-05,
    "MEAN_MOTION_DDOT": 0
  },
  {
    "OBJECT_NAME": "TUSUR GO (RS78S)",
    "OBJECT_ID": "2024-199AZ",
    "EPOCH": "2025-05-31T20:40:35.207904",
    "MEAN_MOTION": 15.36206737,
    "ECCENTRICITY": 0.0012974,
    "INCLINATION": 97.3536,
    "RA_OF_ASC_NODE": 20.7738,
    "ARG_OF_PERICENTER": 215.9106,
    "MEAN_ANOMALY": 144.1267,
    "EPHEMERIS_TYPE": 0,
    "CLASSIFICATION_TYPE": "U",
    "NORAD_CAT_ID": 61782,
    "ELEMENT_SET_NO": 999,
    "REV_AT_EPOCH": 7562,
    "BSTAR": 0.00064047,
    "MEAN_MOTION_DOT": 0.00022618,
    "MEAN_MOTION_DDOT": 0
  },
  {
    "OBJECT_NAME": "SAMSAT-IONOSPHERE (RS75S)",
    "OBJECT_ID": "2024-199BB",
    "EPOCH": "2025-05-31T21:25:41.907360",
    "MEAN_MOTION": 15.33142632,
    "ECCENTRICITY": 0.0013665,
    "INCLINATION": 97.3548,
    "RA_OF_ASC_NODE": 20.4456,
    "ARG_OF_PERICENTER": 219.2091,
    "MEAN_ANOMALY": 140.8162,
    "EPHEMERIS_TYPE": 0,
    "CLASSIFICATION_TYPE": "U",
    "NORAD_CAT_ID": 61784,
    "ELEMENT_SET_NO": 999,
    "REV_AT_EPOCH": 7875,
    "BSTAR": 0.00047938,
    "MEAN_MOTION_DOT": 0.00015328,
    "MEAN_MOTION_DDOT": 0
  },
  {
    "OBJECT_NAME": "RTU MIREA 1 (RS51S)",
    "OBJECT_ID": "2024-199BC",
    "EPOCH": "2025-05-31T20:48:57.470112",
    "MEAN_MOTION": 15.33571148,
    "ECCENTRICITY": 0.001349,
    "INCLINATION": 97.3546,
    "RA_OF_ASC_NODE": 20.4774,
    "ARG_OF_PERICENTER": 218.1551,
    "MEAN_ANOMALY": 141.8737,
    "EPHEMERIS_TYPE": 0,
    "CLASSIFICATION_TYPE": "U",
    "NORAD_CAT_ID": 61785,
    "ELEMENT_SET_NO": 999,
    "REV_AT_EPOCH": 7560,
    "BSTAR": 0.0004872,
    "MEAN_MOTION_DOT": 0.00015792,
    "MEAN_MOTION_DDOT": 0
  }
]